{
  "type": "FeatureCollection",
  "features": [
    {
      "type": "Feature",
      "properties": {
        "norad_id": 65731,
        "name": "1998-067XK",
        "group": "stations",
        "lat": NaN,
        "lon": NaN,
        "alt_km": NaN,
        "timestamp": "2025-12-01T02:46:51.966425+00:00",
        "meta": {
          "OBJECT_NAME": "1998-067XK",
          "OBJECT_ID": "1998-067XK",
          "EPOCH": "2025-11-30T20:26:50.094816",
          "MEAN_MOTION": 15.63022394,
          "ECCENTRICITY": 0.0005946,
          "INCLINATION": 51.6292,
          "RA_OF_ASC_NODE": 197.4168,
          "ARG_OF_PERICENTER": 178.9897,
          "MEAN_ANOMALY": 181.111,
          "EPHEMERIS_TYPE": 0,
          "CLASSIFICATION_TYPE": "U",
          "NORAD_CAT_ID": 65731,
          "ELEMENT_SET_NO": 999,
          "REV_AT_EPOCH": 1128,
          "BSTAR": 0.00087111,
          "MEAN_MOTION_DOT": 0.00081042,
          "MEAN_MOTION_DDOT": 0
        }
      },
      "geometry": {
        "type": "Point",
        "coordinates": [
          NaN,
          NaN
        ]
      }
    },
    {
      "type": "Feature",
      "properties": {
        "norad_id": 65732,
        "name": "RSP-03",
        "group": "stations",
        "lat": NaN,
        "lon": NaN,
        "alt_km": NaN,
        "timestamp": "2025-12-01T02:46:51.966443+00:00",
        "meta": {
          "OBJECT_NAME": "RSP-03",
          "OBJECT_ID": "1998-067XL",
          "EPOCH": "2025-11-30T17:57:00.505728",
          "MEAN_MOTION": 15.65119481,
          "ECCENTRICITY": 0.0006767,
          "INCLINATION": 51.6285,
          "RA_OF_ASC_NODE": 197.4651,
          "ARG_OF_PERICENTER": 181.4388,
          "MEAN_ANOMALY": 178.6589,
          "EPHEMERIS_TYPE": 0,
          "CLASSIFICATION_TYPE": "U",
          "NORAD_CAT_ID": 65732,
          "ELEMENT_SET_NO": 999,
          "REV_AT_EPOCH": 1128,
          "BSTAR": 0.00098892,
          "MEAN_MOTION_DOT": 0.00100324,
          "MEAN_MOTION_DDOT": 0
        }
      },
      "geometry": {
        "type": "Point",
        "coordinates": [
          NaN,
          NaN
        ]
      }
    },
    {
      "type": "Feature",
      "properties": {
        "norad_id": 65733,
        "name": "GHS-01",
        "group": "stations",
        "lat": NaN,
        "lon": NaN,
        "alt_km": NaN,
        "timestamp": "2025-12-01T02:46:51.966461+00:00",
        "meta": {
          "OBJECT_NAME": "GHS-01",
          "OBJECT_ID": "1998-067XM",
          "EPOCH": "2025-11-30T19:14:22.058880",
          "MEAN_MOTION": 15.69357047,
          "ECCENTRICITY": 0.0006886,
          "INCLINATION": 51.6284,
          "RA_OF_ASC_NODE": 196.3266,
          "ARG_OF_PERICENTER": 204.1704,
          "MEAN_ANOMALY": 155.897,
          "EPHEMERIS_TYPE": 0,
          "CLASSIFICATION_TYPE": "U",
          "NORAD_CAT_ID": 65733,
          "ELEMENT_SET_NO": 999,
          "REV_AT_EPOCH": 1130,
          "BSTAR": 0.001267,
          "MEAN_MOTION_DOT": 0.00153923,
          "MEAN_MOTION_DDOT": 0
        }
      },
      "geometry": {
        "type": "Point",
        "coordinates": [
          NaN,
          NaN
        ]
      }
    },
    {
      "type": "Feature",
      "properties": {
        "norad_id": 65941,
        "name": "YOTSUBA-KULOVER",
        "group": "stations",
        "lat": NaN,
        "lon": NaN,
        "alt_km": NaN,
        "timestamp": "2025-12-01T02:46:51.966479+00:00",
        "meta": {
          "OBJECT_NAME": "YOTSUBA-KULOVER",
          "OBJECT_ID": "1998-067XN",
          "EPOCH": "2025-11-29T08:58:08.056704",
          "MEAN_MOTION": 15.57263891,
          "ECCENTRICITY": 0.00023723,
          "INCLINATION": 51.6289,
          "RA_OF_ASC_NODE": 207.0418,
          "ARG_OF_PERICENTER": 147.8158,
          "MEAN_ANOMALY": 212.2979,
          "EPHEMERIS_TYPE": 0,
          "CLASSIFICATION_TYPE": "U",
          "NORAD_CAT_ID": 65941,
          "ELEMENT_SET_NO": 999,
          "REV_AT_EPOCH": 777,
          "BSTAR": 0.0007903507,
          "MEAN_MOTION_DOT": 0.00058681,
          "MEAN_MOTION_DDOT": 0
        }
      },
      "geometry": {
        "type": "Point",
        "coordinates": [
          NaN,
          NaN
        ]
      }
    },
    {
      "type": "Feature",
      "properties": {
        "norad_id": 65942,
        "name": "BOTAN",
        "group": "stations",
        "lat": NaN,
        "lon": NaN,
        "alt_km": NaN,
        "timestamp": "2025-12-01T02:46:51.966496+00:00",
        "meta": {
          "OBJECT_NAME": "BOTAN",
          "OBJECT_ID": "1998-067XP",
          "EPOCH": "2025-11-30T08:45:14.553792",
          "MEAN_MOTION": 15.59824542,
          "ECCENTRICITY": 0.00045642,
          "INCLINATION": 51.6296,
          "RA_OF_ASC_NODE": 201.6606,
          "ARG_OF_PERICENTER": 157.9332,
          "MEAN_ANOMALY": 202.1859,
          "EPHEMERIS_TYPE": 0,
          "CLASSIFICATION_TYPE": "U",
          "NORAD_CAT_ID": 65942,
          "ELEMENT_SET_NO": 999,
          "REV_AT_EPOCH": 793,
          "BSTAR": 0.0011759545,
          "MEAN_MOTION_DOT": 0.00096969,
          "MEAN_MOTION_DDOT": 0
        }
      },
      "geometry": {
        "type": "Point",
        "coordinates": [
          NaN,
          NaN
        ]
      }
    },
    {
      "type": "Feature",
      "properties": {
        "norad_id": 65943,
        "name": "E-KAGAKU-1",
        "group": "stations",
        "lat": NaN,
        "lon": NaN,
        "alt_km": NaN,
        "timestamp": "2025-12-01T02:46:51.966515+00:00",
        "meta": {
          "OBJECT_NAME": "E-KAGAKU-1",
          "OBJECT_ID": "1998-067XQ",
          "EPOCH": "2025-11-30T00:21:52.984512",
          "MEAN_MOTION": 15.57324386,
          "ECCENTRICITY": 0.00037836,
          "INCLINATION": 51.6305,
          "RA_OF_ASC_NODE": 203.8267,
          "ARG_OF_PERICENTER": 135.1166,
          "MEAN_ANOMALY": 225.0132,
          "EPHEMERIS_TYPE": 0,
          "CLASSIFICATION_TYPE": "U",
          "NORAD_CAT_ID": 65943,
          "ELEMENT_SET_NO": 999,
          "REV_AT_EPOCH": 787,
          "BSTAR": 0.00087589433,
          "MEAN_MOTION_DOT": 0.00065299,
          "MEAN_MOTION_DDOT": 0
        }
      },
      "geometry": {
        "type": "Point",
        "coordinates": [
          NaN,
          NaN
        ]
      }
    },
    {
      "type": "Feature",
      "properties": {
        "norad_id": 66052,
        "name": "HRC MONOBLOCK CAMERA",
        "group": "stations",
        "lat": NaN,
        "lon": NaN,
        "alt_km": NaN,
        "timestamp": "2025-12-01T02:46:51.966533+00:00",
        "meta": {
          "OBJECT_NAME": "HRC MONOBLOCK CAMERA",
          "OBJECT_ID": "1998-067XR",
          "EPOCH": "2025-11-30T08:45:13.490208",
          "MEAN_MOTION": 15.5298676,
          "ECCENTRICITY": 0.00045696,
          "INCLINATION": 51.6305,
          "RA_OF_ASC_NODE": 203.1547,
          "ARG_OF_PERICENTER": 134.7899,
          "MEAN_ANOMALY": 225.3463,
          "EPHEMERIS_TYPE": 0,
          "CLASSIFICATION_TYPE": "U",
          "NORAD_CAT_ID": 66052,
          "ELEMENT_SET_NO": 999,
          "REV_AT_EPOCH": 691,
          "BSTAR": 0.00058422747,
          "MEAN_MOTION_DOT": 0.00036812,
          "MEAN_MOTION_DDOT": 0
        }
      },
      "geometry": {
        "type": "Point",
        "coordinates": [
          NaN,
          NaN
        ]
      }
    },
    {
      "type": "Feature",
      "properties": {
        "norad_id": 66174,
        "name": "HTV-X1",
        "group": "stations",
        "lat": NaN,
        "lon": NaN,
        "alt_km": NaN,
        "timestamp": "2025-12-01T02:46:51.966550+00:00",
        "meta": {
          "OBJECT_NAME": "HTV-X1",
          "OBJECT_ID": "2025-241A",
          "EPOCH": "2025-11-30T13:03:31.260384",
          "MEAN_MOTION": 15.49206888,
          "ECCENTRICITY": 0.00036901,
          "INCLINATION": 51.6312,
          "RA_OF_ASC_NODE": 202.8529,
          "ARG_OF_PERICENTER": 187.0517,
          "MEAN_ANOMALY": 173.042,
          "EPHEMERIS_TYPE": 0,
          "CLASSIFICATION_TYPE": "U",
          "NORAD_CAT_ID": 66174,
          "ELEMENT_SET_NO": 999,
          "REV_AT_EPOCH": 51,
          "BSTAR": 0.00015180088,
          "MEAN_MOTION_DOT": 7.982e-05,
          "MEAN_MOTION_DDOT": 0
        }
      },
      "geometry": {
        "type": "Point",
        "coordinates": [
          NaN,
          NaN
        ]
      }
    }
  ]
}